SL-14 R/B               
1 21423U 91042B   26046.00137823  .00000388  00000+0  46183-4 0  9994
2 21423  82.4898 241.4623 0016066 319.8476  40.1550 14.81806383849718
ERS-1                   
1 21574U 91050A   26046.03661342  .00000331  00000+0  12063-3 0  9998
2 21574  98.7892  63.7014 0030873 269.4798  90.2851 14.39430709812478
ARIANE 40 R/B           
1 21610U 91050F   26046.14143403  .00000287  00000+0  98364-4 0  9993
2 21610  98.2060  99.2188 0004105 130.1977 229.9573 14.42876506815747
INTERCOSMOS 25          
1 21819U 91086A   26046.11864332  .00001216  00000+0  23414-3 0  9997
2 21819  82.6086 323.6475 1486921 165.5555 199.3371 12.11936378493950
SL-8 R/B                
1 21876U 92008B   26046.19141976  .00000055  00000+0  41171-4 0  9996
2 21876  82.9254 284.5166 0034182 195.5007 284.4703 13.75969908706326
SL-8 R/B                
1 21938U 92020B   26045.79811397  .00000096  00000+0  84256-4 0  9991
2 21938  82.9337 170.7523 0028902   4.4497 149.5928 13.75546318697981
USA 81                  
1 21949U 92023A   26045.81526137  .00000177  00000+0  58196-4 0  9998
2 21949  85.0118 144.6316 0002745  97.9038 262.2466 14.32359479 91510
COSMOS 2219             
1 22219U 92076A   26046.16766872  .00000139  00000+0  97782-4 0  9990
2 22219  71.0579  65.1515 0020045 237.5278 122.3907 14.14077531715195
SL-16 R/B               
1 22220U 92076B   26045.82862758 -.00000191  00000+0 -71172-4 0  9999
2 22220  70.9975 236.5298 0011228 137.8468 315.9219 14.16855357718598
COSMOS 2221             
1 22236U 92080A   26046.16572933  .00001782  00000+0  15598-3 0  9996
2 22236  82.5048 300.6543 0012796 269.5170  90.4585 14.96110533777421
SL-16 R/B               
1 22285U 92093B   26046.12505395  .00000258  00000+0  15669-3 0  9994
2 22285  71.0203  51.6351 0005383 318.2851  41.7861 14.15442761709965
COSMOS 2228             
1 22286U 92094A   26046.13000175  .00001807  00000+0  15395-3 0  9990
2 22286  82.5150 258.9142 0018596  22.2135 337.9888 14.97080914772687
