CCSDS_OMM_VERS = 2.0
CREATION_DATE  = 
ORIGINATOR     = 

OBJECT_NAME    = SL-14 R/B
OBJECT_ID      = 1991-042B
CENTER_NAME    = EARTH
REF_FRAME      = TEME
TIME_SYSTEM    = UTC
MEAN_ELEMENT_THEORY = SGP/SGP4

EPOCH          = 2026-02-15T00:01:59.079072
MEAN_MOTION    = 14.81806383
ECCENTRICITY   = .0016066
INCLINATION    = 82.4898
RA_OF_ASC_NODE = 241.4623
ARG_OF_PERICENTER = 319.8476
MEAN_ANOMALY   = 40.1550

EPHEMERIS_TYPE = 0
CLASSIFICATION_TYPE = U
NORAD_CAT_ID   = 21423
ELEMENT_SET_NO = 999
REV_AT_EPOCH   = 84971
BSTAR          = .46183E-4
MEAN_MOTION_DOT = .388E-5
MEAN_MOTION_DDOT = 0

CCSDS_OMM_VERS = 2.0
CREATION_DATE  = 
ORIGINATOR     = 

OBJECT_NAME    = ERS-1
OBJECT_ID      = 1991-050A
CENTER_NAME    = EARTH
REF_FRAME      = TEME
TIME_SYSTEM    = UTC
MEAN_ELEMENT_THEORY = SGP/SGP4

EPOCH          = 2026-02-15T00:52:43.399488
MEAN_MOTION    = 14.39430709
ECCENTRICITY   = .0030873
INCLINATION    = 98.7892
RA_OF_ASC_NODE = 63.7014
ARG_OF_PERICENTER = 269.4798
MEAN_ANOMALY   = 90.2851

EPHEMERIS_TYPE = 0
CLASSIFICATION_TYPE = U
NORAD_CAT_ID   = 21574
ELEMENT_SET_NO = 999
REV_AT_EPOCH   = 81247
BSTAR          = .12063E-3
MEAN_MOTION_DOT = .331E-5
MEAN_MOTION_DDOT = 0

CCSDS_OMM_VERS = 2.0
CREATION_DATE  = 
ORIGINATOR     = 

OBJECT_NAME    = ARIANE 40 R/B
OBJECT_ID      = 1991-050F
CENTER_NAME    = EARTH
REF_FRAME      = TEME
TIME_SYSTEM    = UTC
MEAN_ELEMENT_THEORY = SGP/SGP4

EPOCH          = 2026-02-15T03:23:39.900192
MEAN_MOTION    = 14.42876506
ECCENTRICITY   = .0004105
INCLINATION    = 98.2060
RA_OF_ASC_NODE = 99.2188
ARG_OF_PERICENTER = 130.1977
MEAN_ANOMALY   = 229.9573

EPHEMERIS_TYPE = 0
CLASSIFICATION_TYPE = U
NORAD_CAT_ID   = 21610
ELEMENT_SET_NO = 999
REV_AT_EPOCH   = 81574
BSTAR          = .98364E-4
MEAN_MOTION_DOT = .287E-5
MEAN_MOTION_DDOT = 0

CCSDS_OMM_VERS = 2.0
CREATION_DATE  = 
ORIGINATOR     = 

OBJECT_NAME    = INTERCOSMOS 25
OBJECT_ID      = 1991-086A
CENTER_NAME    = EARTH
REF_FRAME      = TEME
TIME_SYSTEM    = UTC
MEAN_ELEMENT_THEORY = SGP/SGP4

EPOCH          = 2026-02-15T02:50:50.782848
MEAN_MOTION    = 12.11936378
ECCENTRICITY   = .1486921
INCLINATION    = 82.6086
RA_OF_ASC_NODE = 323.6475
ARG_OF_PERICENTER = 165.5555
MEAN_ANOMALY   = 199.3371

EPHEMERIS_TYPE = 0
CLASSIFICATION_TYPE = U
NORAD_CAT_ID   = 21819
ELEMENT_SET_NO = 999
REV_AT_EPOCH   = 49395
BSTAR          = .23414E-3
MEAN_MOTION_DOT = .1216E-4
MEAN_MOTION_DDOT = 0

CCSDS_OMM_VERS = 2.0
CREATION_DATE  = 
ORIGINATOR     = 

OBJECT_NAME    = SL-8 R/B
OBJECT_ID      = 1992-008B
CENTER_NAME    = EARTH
REF_FRAME      = TEME
TIME_SYSTEM    = UTC
MEAN_ELEMENT_THEORY = SGP/SGP4

EPOCH          = 2026-02-15T04:35:38.667264
MEAN_MOTION    = 13.75969908
ECCENTRICITY   = .0034182
INCLINATION    = 82.9254
RA_OF_ASC_NODE = 284.5166
ARG_OF_PERICENTER = 195.5007
MEAN_ANOMALY   = 284.4703

EPHEMERIS_TYPE = 0
CLASSIFICATION_TYPE = U
NORAD_CAT_ID   = 21876
ELEMENT_SET_NO = 999
REV_AT_EPOCH   = 70632
BSTAR          = .41171E-4
MEAN_MOTION_DOT = .55E-6
MEAN_MOTION_DDOT = 0

CCSDS_OMM_VERS = 2.0
CREATION_DATE  = 
ORIGINATOR     = 

OBJECT_NAME    = SL-8 R/B
OBJECT_ID      = 1992-020B
CENTER_NAME    = EARTH
REF_FRAME      = TEME
TIME_SYSTEM    = UTC
MEAN_ELEMENT_THEORY = SGP/SGP4

EPOCH          = 2026-02-14T19:09:17.047008
MEAN_MOTION    = 13.75546318
ECCENTRICITY   = .0028902
INCLINATION    = 82.9337
RA_OF_ASC_NODE = 170.7523
ARG_OF_PERICENTER = 4.4497
MEAN_ANOMALY   = 149.5928

EPHEMERIS_TYPE = 0
CLASSIFICATION_TYPE = U
NORAD_CAT_ID   = 21938
ELEMENT_SET_NO = 999
REV_AT_EPOCH   = 69798
BSTAR          = .84256E-4
MEAN_MOTION_DOT = .96E-6
MEAN_MOTION_DDOT = 0

CCSDS_OMM_VERS = 2.0
CREATION_DATE  = 
ORIGINATOR     = 

OBJECT_NAME    = USA 81
OBJECT_ID      = 1992-023A
CENTER_NAME    = EARTH
REF_FRAME      = TEME
TIME_SYSTEM    = UTC
MEAN_ELEMENT_THEORY = SGP/SGP4

EPOCH          = 2026-02-14T19:33:58.582368
MEAN_MOTION    = 14.32359479
ECCENTRICITY   = .0002745
INCLINATION    = 85.0118
RA_OF_ASC_NODE = 144.6316
ARG_OF_PERICENTER = 97.9038
MEAN_ANOMALY   = 262.2466

EPHEMERIS_TYPE = 0
CLASSIFICATION_TYPE = U
NORAD_CAT_ID   = 21949
ELEMENT_SET_NO = 999
REV_AT_EPOCH   = 9151
BSTAR          = .58196E-4
MEAN_MOTION_DOT = .177E-5
MEAN_MOTION_DDOT = 0

CCSDS_OMM_VERS = 2.0
CREATION_DATE  = 
ORIGINATOR     = 

OBJECT_NAME    = COSMOS 2219
OBJECT_ID      = 1992-076A
CENTER_NAME    = EARTH
REF_FRAME      = TEME
TIME_SYSTEM    = UTC
MEAN_ELEMENT_THEORY = SGP/SGP4

EPOCH          = 2026-02-15T04:01:26.577408
MEAN_MOTION    = 14.14077531
ECCENTRICITY   = .0020045
INCLINATION    = 71.0579
RA_OF_ASC_NODE = 65.1515
ARG_OF_PERICENTER = 237.5278
MEAN_ANOMALY   = 122.3907

EPHEMERIS_TYPE = 0
CLASSIFICATION_TYPE = U
NORAD_CAT_ID   = 22219
ELEMENT_SET_NO = 999
REV_AT_EPOCH   = 71519
BSTAR          = .97782E-4
MEAN_MOTION_DOT = .139E-5
MEAN_MOTION_DDOT = 0

CCSDS_OMM_VERS = 2.0
CREATION_DATE  = 
ORIGINATOR     = 

OBJECT_NAME    = SL-16 R/B
OBJECT_ID      = 1992-076B
CENTER_NAME    = EARTH
REF_FRAME      = TEME
TIME_SYSTEM    = UTC
MEAN_ELEMENT_THEORY = SGP/SGP4

EPOCH          = 2026-02-14T19:53:13.422912
MEAN_MOTION    = 14.16855357
ECCENTRICITY   = .0011228
INCLINATION    = 70.9975
RA_OF_ASC_NODE = 236.5298
ARG_OF_PERICENTER = 137.8468
MEAN_ANOMALY   = 315.9219

EPHEMERIS_TYPE = 0
CLASSIFICATION_TYPE = U
NORAD_CAT_ID   = 22220
ELEMENT_SET_NO = 999
REV_AT_EPOCH   = 71859
BSTAR          = -.71172E-4
MEAN_MOTION_DOT = -.191E-5
MEAN_MOTION_DDOT = 0

CCSDS_OMM_VERS = 2.0
CREATION_DATE  = 
ORIGINATOR     = 

OBJECT_NAME    = COSMOS 2221
OBJECT_ID      = 1992-080A
CENTER_NAME    = EARTH
REF_FRAME      = TEME
TIME_SYSTEM    = UTC
MEAN_ELEMENT_THEORY = SGP/SGP4

EPOCH          = 2026-02-15T03:58:39.014112
MEAN_MOTION    = 14.96110533
ECCENTRICITY   = .0012796
INCLINATION    = 82.5048
RA_OF_ASC_NODE = 300.6543
ARG_OF_PERICENTER = 269.5170
MEAN_ANOMALY   = 90.4585

EPHEMERIS_TYPE = 0
CLASSIFICATION_TYPE = U
NORAD_CAT_ID   = 22236
ELEMENT_SET_NO = 999
REV_AT_EPOCH   = 77742
BSTAR          = .15598E-3
MEAN_MOTION_DOT = .1782E-4
MEAN_MOTION_DDOT = 0

CCSDS_OMM_VERS = 2.0
CREATION_DATE  = 
ORIGINATOR     = 

OBJECT_NAME    = SL-16 R/B
OBJECT_ID      = 1992-093B
CENTER_NAME    = EARTH
REF_FRAME      = TEME
TIME_SYSTEM    = UTC
MEAN_ELEMENT_THEORY = SGP/SGP4

EPOCH          = 2026-02-15T03:00:04.661280
MEAN_MOTION    = 14.15442761
ECCENTRICITY   = .0005383
INCLINATION    = 71.0203
RA_OF_ASC_NODE = 51.6351
ARG_OF_PERICENTER = 318.2851
MEAN_ANOMALY   = 41.7861

EPHEMERIS_TYPE = 0
CLASSIFICATION_TYPE = U
NORAD_CAT_ID   = 22285
ELEMENT_SET_NO = 999
REV_AT_EPOCH   = 70996
BSTAR          = .15669E-3
MEAN_MOTION_DOT = .258E-5
MEAN_MOTION_DDOT = 0

CCSDS_OMM_VERS = 2.0
CREATION_DATE  = 
ORIGINATOR     = 

OBJECT_NAME    = COSMOS 2228
OBJECT_ID      = 1992-094A
CENTER_NAME    = EARTH
REF_FRAME      = TEME
TIME_SYSTEM    = UTC
MEAN_ELEMENT_THEORY = SGP/SGP4

EPOCH          = 2026-02-15T03:07:12.151200
MEAN_MOTION    = 14.97080914
ECCENTRICITY   = .0018596
INCLINATION    = 82.5150
RA_OF_ASC_NODE = 258.9142
ARG_OF_PERICENTER = 22.2135
MEAN_ANOMALY   = 337.9888

EPHEMERIS_TYPE = 0
CLASSIFICATION_TYPE = U
NORAD_CAT_ID   = 22286
ELEMENT_SET_NO = 999
REV_AT_EPOCH   = 77268
BSTAR          = .15395E-3
MEAN_MOTION_DOT = .1807E-4
MEAN_MOTION_DDOT = 0

